[{"OBJECT_NAME":"AMOS-5","OBJECT_ID":"2011-074A","EPOCH":"2026-03-03T11:11:20.379840","MEAN_MOTION":1.0020227,"ECCENTRICITY":0.00020698,"INCLINATION":8.5686,"RA_OF_ASC_NODE":61.9036,"ARG_OF_PERICENTER":292.9249,"MEAN_ANOMALY":86.97,"EPHEMERIS_TYPE":0,"CLASSIFICATION_TYPE":"U","NORAD_CAT_ID":37950,"ELEMENT_SET_NO":999,"REV_AT_EPOCH":5194,"BSTAR":0,"MEAN_MOTION_DOT":-3.65e-6,"MEAN_MOTION_DDOT":0},{"OBJECT_NAME":"LUCH-5A","OBJECT_ID":"2011-074B","EPOCH":"2026-03-03T20:00:16.974720","MEAN_MOTION":1.00275356,"ECCENTRICITY":0.0004005,"INCLINATION":8.4858,"RA_OF_ASC_NODE":75.3546,"ARG_OF_PERICENTER":243.8626,"MEAN_ANOMALY":309.5287,"EPHEMERIS_TYPE":0,"CLASSIFICATION_TYPE":"U","NORAD_CAT_ID":37951,"ELEMENT_SET_NO":999,"REV_AT_EPOCH":5199,"BSTAR":0,"MEAN_MOTION_DOT":-5.7e-7,"MEAN_MOTION_DDOT":0},{"OBJECT_NAME":"BREEZE-M R/B","OBJECT_ID":"2011-074C","EPOCH":"2026-03-03T03:52:03.672768","MEAN_MOTION":0.89625684,"ECCENTRICITY":0.07963764,"INCLINATION":11.1247,"RA_OF_ASC_NODE":51.0666,"ARG_OF_PERICENTER":178.1857,"MEAN_ANOMALY":1.9983,"EPHEMERIS_TYPE":0,"CLASSIFICATION_TYPE":"U","NORAD_CAT_ID":37952,"ELEMENT_SET_NO":999,"REV_AT_EPOCH":4619,"BSTAR":0,"MEAN_MOTION_DOT":-2.07e-6,"MEAN_MOTION_DDOT":0},{"OBJECT_NAME":"NIGCOMSAT 1R","OBJECT_ID":"2011-077A","EPOCH":"2026-03-03T15:59:19.779360","MEAN_MOTION":1.0027544,"ECCENTRICITY":0.000243,"INCLINATION":0.0198,"RA_OF_ASC_NODE":147.7366,"ARG_OF_PERICENTER":177.5731,"MEAN_ANOMALY":118.4644,"EPHEMERIS_TYPE":0,"CLASSIFICATION_TYPE":"U","NORAD_CAT_ID":38014,"ELEMENT_SET_NO":999,"REV_AT_EPOCH":5189,"BSTAR":0,"MEAN_MOTION_DOT":1.3e-6,"MEAN_MOTION_DDOT":0},{"OBJECT_NAME":"WGS F4 (USA 233)","OBJECT_ID":"2012-003A","EPOCH":"2026-03-03T13:53:16.694016","MEAN_MOTION":1.00270572,"ECCENTRICITY":8.57e-5,"INCLINATION":0.0093,"RA_OF_ASC_NODE":146.7442,"ARG_OF_PERICENTER":131.6967,"MEAN_ANOMALY":179.5708,"EPHEMERIS_TYPE":0,"CLASSIFICATION_TYPE":"U","NORAD_CAT_ID":38070,"ELEMENT_SET_NO":999,"REV_AT_EPOCH":4308,"BSTAR":0,"MEAN_MOTION_DOT":-2.28e-6,"MEAN_MOTION_DDOT":0},{"OBJECT_NAME":"DELTA 4 R/B","OBJECT_ID":"2012-003B","EPOCH":"2026-03-02T21:43:29.197056","MEAN_MOTION":1.16571429,"ECCENTRICITY":0.8256918,"INCLINATION":20.006,"RA_OF_ASC_NODE":118.2451,"ARG_OF_PERICENTER":298.9916,"MEAN_ANOMALY":3.8279,"EPHEMERIS_TYPE":0,"CLASSIFICATION_TYPE":"U","NORAD_CAT_ID":38071,"ELEMENT_SET_NO":999,"REV_AT_EPOCH":5972,"BSTAR":0.0012878,"MEAN_MOTION_DOT":9.91e-6,"MEAN_MOTION_DDOT":0},{"OBJECT_NAME":"FENGYUN 2F AKM","OBJECT_ID":"2012-002C","EPOCH":"2026-03-02T17:31:14.413152","MEAN_MOTION":0.99398849,"ECCENTRICITY":0.00635979,"INCLINATION":8.9166,"RA_OF_ASC_NODE":58.8746,"ARG_OF_PERICENTER":205.6548,"MEAN_ANOMALY":155.0164,"EPHEMERIS_TYPE":0,"CLASSIFICATION_TYPE":"U","NORAD_CAT_ID":38072,"ELEMENT_SET_NO":999,"REV_AT_EPOCH":5078,"BSTAR":0,"MEAN_MOTION_DOT":-1.81e-6,"MEAN_MOTION_DDOT":0},{"OBJECT_NAME":"SES-4","OBJECT_ID":"2012-007A","EPOCH":"2026-03-03T19:06:24.350688","MEAN_MOTION":1.00269945,"ECCENTRICITY":0.0002474,"INCLINATION":0.0344,"RA_OF_ASC_NODE":63.502,"ARG_OF_PERICENTER":290.1006,"MEAN_ANOMALY":72.5462,"EPHEMERIS_TYPE":0,"CLASSIFICATION_TYPE":"U","NORAD_CAT_ID":38087,"ELEMENT_SET_NO":999,"REV_AT_EPOCH":5116,"BSTAR":0,"MEAN_MOTION_DOT":-1.82e-6,"MEAN_MOTION_DDOT":0},{"OBJECT_NAME":"BEIDOU-2 G5","OBJECT_ID":"2012-008A","EPOCH":"2026-03-03T18:24:00.760608","MEAN_MOTION":1.00276118,"ECCENTRICITY":0.001412,"INCLINATION":3.3108,"RA_OF_ASC_NODE":70.3148,"ARG_OF_PERICENTER":250.1552,"MEAN_ANOMALY":175.8358,"EPHEMERIS_TYPE":0,"CLASSIFICATION_TYPE":"U","NORAD_CAT_ID":38091,"ELEMENT_SET_NO":999,"REV_AT_EPOCH":5131,"BSTAR":0,"MEAN_MOTION_DOT":4.4e-7,"MEAN_MOTION_DDOT":0},{"OBJECT_NAME":"MUOS-1","OBJECT_ID":"2012-009A","EPOCH":"2026-03-03T13:35:48.533280","MEAN_MOTION":1.00273842,"ECCENTRICITY":0.0057074,"INCLINATION":5.2594,"RA_OF_ASC_NODE":47.1941,"ARG_OF_PERICENTER":357.6535,"MEAN_ANOMALY":220.404,"EPHEMERIS_TYPE":0,"CLASSIFICATION_TYPE":"U","NORAD_CAT_ID":38093,"ELEMENT_SET_NO":999,"REV_AT_EPOCH":5138,"BSTAR":0,"MEAN_MOTION_DOT":-1.39e-6,"MEAN_MOTION_DDOT":0},{"OBJECT_NAME":"INTELSAT 22 (IS-22)","OBJECT_ID":"2012-011A","EPOCH":"2026-03-03T18:25:16.452192","MEAN_MOTION":1.00273632,"ECCENTRICITY":0.0001576,"INCLINATION":0.0224,"RA_OF_ASC_NODE":225.513,"ARG_OF_PERICENTER":138.8705,"MEAN_ANOMALY":145.5646,"EPHEMERIS_TYPE":0,"CLASSIFICATION_TYPE":"U","NORAD_CAT_ID":38098,"ELEMENT_SET_NO":999,"REV_AT_EPOCH":613,"BSTAR":0,"MEAN_MOTION_DOT":-7.3e-7,"MEAN_MOTION_DDOT":0},{"OBJECT_NAME":"BREEZE-M R/B","OBJECT_ID":"2012-011B","EPOCH":"2026-03-03T09:17:44.409984","MEAN_MOTION":1.11833624,"ECCENTRICITY":0.76126701,"INCLINATION":25.4178,"RA_OF_ASC_NODE":172.3001,"ARG_OF_PERICENTER":355.7534,"MEAN_ANOMALY":0.1672,"EPHEMERIS_TYPE":0,"CLASSIFICATION_TYPE":"U","NORAD_CAT_ID":38099,"ELEMENT_SET_NO":999,"REV_AT_EPOCH":5679,"BSTAR":0,"MEAN_MOTION_DOT":-4.22e-6,"MEAN_MOTION_DDOT":0},{"OBJECT_NAME":"COSMOS 2479","OBJECT_ID":"2012-012A","EPOCH":"2026-03-03T15:51:13.056192","MEAN_MOTION":1.00339291,"ECCENTRICITY":0.0007033,"INCLINATION":8.6077,"RA_OF_ASC_NODE":57.3868,"ARG_OF_PERICENTER":242.4528,"MEAN_ANOMALY":113.408,"EPHEMERIS_TYPE":0,"CLASSIFICATION_TYPE":"U","NORAD_CAT_ID":38101,"ELEMENT_SET_NO":999,"REV_AT_EPOCH":5102,"BSTAR":0,"MEAN_MOTION_DOT":8.4e-7,"MEAN_MOTION_DDOT":0},{"OBJECT_NAME":"SL-12 R/B(2)","OBJECT_ID":"2012-012D","EPOCH":"2026-03-03T16:42:15.665760","MEAN_MOTION":1.00323351,"ECCENTRICITY":0.0012681,"INCLINATION":8.5958,"RA_OF_ASC_NODE":57.5963,"ARG_OF_PERICENTER":296.7409,"MEAN_ANOMALY":250.8961,"EPHEMERIS_TYPE":0,"CLASSIFICATION_TYPE":"U","NORAD_CAT_ID":38104,"ELEMENT_SET_NO":999,"REV_AT_EPOCH":5100,"BSTAR":0,"MEAN_MOTION_DOT":1.03e-6,"MEAN_MOTION_DDOT":0},{"OBJECT_NAME":"APSTAR-7","OBJECT_ID":"2012-013A","EPOCH":"2026-03-03T19:34:29.159328","MEAN_MOTION":1.0027155,"ECCENTRICITY":0.0003388,"INCLINATION":0.0119,"RA_OF_ASC_NODE":197.108,"ARG_OF_PERICENTER":159.9874,"MEAN_ANOMALY":174.5973,"EPHEMERIS_TYPE":0,"CLASSIFICATION_TYPE":"U","NORAD_CAT_ID":38107,"ELEMENT_SET_NO":999,"REV_AT_EPOCH":5075,"BSTAR":0,"MEAN_MOTION_DOT":-1.15e-6,"MEAN_MOTION_DDOT":0},{"OBJECT_NAME":"YAHSAT 1B","OBJECT_ID":"2012-016A","EPOCH":"2026-03-03T17:43:32.291616","MEAN_MOTION":1.0027236,"ECCENTRICITY":0.0003276,"INCLINATION":0.0814,"RA_OF_ASC_NODE":92.264,"ARG_OF_PERICENTER":254.2464,"MEAN_ANOMALY":128.4512,"EPHEMERIS_TYPE":0,"CLASSIFICATION_TYPE":"U","NORAD_CAT_ID":38245,"ELEMENT_SET_NO":999,"REV_AT_EPOCH":4455,"BSTAR":0,"MEAN_MOTION_DOT":1.13e-6,"MEAN_MOTION_DDOT":0},{"OBJECT_NAME":"AEHF-2 (USA 235)","OBJECT_ID":"2012-019A","EPOCH":"2026-03-03T19:07:54.206688","MEAN_MOTION":1.00273449,"ECCENTRICITY":0.0003158,"INCLINATION":6.4057,"RA_OF_ASC_NODE":58.253,"ARG_OF_PERICENTER":275.4875,"MEAN_ANOMALY":98.2773,"EPHEMERIS_TYPE":0,"CLASSIFICATION_TYPE":"U","NORAD_CAT_ID":38254,"ELEMENT_SET_NO":999,"REV_AT_EPOCH":593,"BSTAR":0,"MEAN_MOTION_DOT":-1.45e-6,"MEAN_MOTION_DDOT":0},{"OBJECT_NAME":"JCSAT-13","OBJECT_ID":"2012-023A","EPOCH":"2026-03-03T17:24:38.666592","MEAN_MOTION":1.00272836,"ECCENTRICITY":0.0002135,"INCLINATION":0.0387,"RA_OF_ASC_NODE":271.4689,"ARG_OF_PERICENTER":113.2018,"MEAN_ANOMALY":161.9694,"EPHEMERIS_TYPE":0,"CLASSIFICATION_TYPE":"U","NORAD_CAT_ID":38331,"ELEMENT_SET_NO":999,"REV_AT_EPOCH":5048,"BSTAR":0,"MEAN_MOTION_DOT":-3.7e-6,"MEAN_MOTION_DDOT":0},{"OBJECT_NAME":"VINASAT-2","OBJECT_ID":"2012-023B","EPOCH":"2026-03-03T17:24:38.666592","MEAN_MOTION":1.00269591,"ECCENTRICITY":0.0002874,"INCLINATION":0.052,"RA_OF_ASC_NODE":299.6716,"ARG_OF_PERICENTER":62.0106,"MEAN_ANOMALY":192.7853,"EPHEMERIS_TYPE":0,"CLASSIFICATION_TYPE":"U","NORAD_CAT_ID":38332,"ELEMENT_SET_NO":999,"REV_AT_EPOCH":4560,"BSTAR":0,"MEAN_MOTION_DOT":-3.43e-6,"MEAN_MOTION_DDOT":0},{"OBJECT_NAME":"NIMIQ 6","OBJECT_ID":"2012-026A","EPOCH":"2026-03-03T13:38:33.270432","MEAN_MOTION":1.00270999,"ECCENTRICITY":0.0002629,"INCLINATION":0.0573,"RA_OF_ASC_NODE":279.6248,"ARG_OF_PERICENTER":57.76,"MEAN_ANOMALY":297.471,"EPHEMERIS_TYPE":0,"CLASSIFICATION_TYPE":"U","NORAD_CAT_ID":38342,"ELEMENT_SET_NO":999,"REV_AT_EPOCH":4935,"BSTAR":0,"MEAN_MOTION_DOT":-1.88e-6,"MEAN_MOTION_DDOT":0},{"OBJECT_NAME":"ZHONGXING-2A","OBJECT_ID":"2012-028A","EPOCH":"2026-03-03T19:40:43.561632","MEAN_MOTION":1.00272938,"ECCENTRICITY":0.0001271,"INCLINATION":1.1819,"RA_OF_ASC_NODE":85.3659,"ARG_OF_PERICENTER":228.7599,"MEAN_ANOMALY":240.8796,"EPHEMERIS_TYPE":0,"CLASSIFICATION_TYPE":"U","NORAD_CAT_ID":38352,"ELEMENT_SET_NO":999,"REV_AT_EPOCH":5024,"BSTAR":0,"MEAN_MOTION_DOT":-3.06e-6,"MEAN_MOTION_DDOT":0},{"OBJECT_NAME":"INTELSAT 19 (IS-19)","OBJECT_ID":"2012-030A","EPOCH":"2026-03-03T18:17:14.062848","MEAN_MOTION":1.00269987,"ECCENTRICITY":0.0003155,"INCLINATION":0.0252,"RA_OF_ASC_NODE":150.879,"ARG_OF_PERICENTER":208.9049,"MEAN_ANOMALY":242.0651,"EPHEMERIS_TYPE":0,"CLASSIFICATION_TYPE":"U","NORAD_CAT_ID":38356,"ELEMENT_SET_NO":999,"REV_AT_EPOCH":4939,"BSTAR":0,"MEAN_MOTION_DOT":0,"MEAN_MOTION_DDOT":0},{"OBJECT_NAME":"BLOCK DM-SL R/B","OBJECT_ID":"2012-030B","EPOCH":"2026-03-03T14:22:24.038112","MEAN_MOTION":2.25339911,"ECCENTRICITY":0.7090048,"INCLINATION":0.2606,"RA_OF_ASC_NODE":95.7238,"ARG_OF_PERICENTER":259.0253,"MEAN_ANOMALY":0.5081,"EPHEMERIS_TYPE":0,"CLASSIFICATION_TYPE":"U","NORAD_CAT_ID":38357,"ELEMENT_SET_NO":999,"REV_AT_EPOCH":11325,"BSTAR":0.0020548,"MEAN_MOTION_DOT":-1.73e-6,"MEAN_MOTION_DDOT":0},{"OBJECT_NAME":"DELTA 4 R/B","OBJECT_ID":"2012-034B","EPOCH":"2026-03-03T15:13:52.349952","MEAN_MOTION":1.03150791,"ECCENTRICITY":0.0193696,"INCLINATION":6.7228,"RA_OF_ASC_NODE":60.7742,"ARG_OF_PERICENTER":177.7443,"MEAN_ANOMALY":182.5411,"EPHEMERIS_TYPE":0,"CLASSIFICATION_TYPE":"U","NORAD_CAT_ID":38529,"ELEMENT_SET_NO":999,"REV_AT_EPOCH":2555,"BSTAR":0,"MEAN_MOTION_DOT":-1.39e-6,"MEAN_MOTION_DDOT":0}]
